STARLINK-36317          
1 67736U 26026R   26060.12498960 -.00054753  00000+0 -28725-3 0  9990
2 67736  97.2865 114.3887 0001555  52.1955 307.9453 15.80788819  2786
STARLINK-36330          
1 67737U 26026S   26060.12222495  .00034384  00000+0  17938-3 0  9999
2 67737  97.2861 114.3924 0001568  45.2922 314.8474 15.80835080  2789
STARLINK-36327          
1 67738U 26026T   26060.12082150 -.00003367  00000+0 -16848-4 0  9991
2 67738  97.2862 114.3948 0001007  91.2045 268.9338 15.80813864  2786
STARLINK-36329          
1 67739U 26026U   26060.11235651  .00051040  00000+0  26524-3 0  9997
2 67739  97.2864 114.4023 0001593  91.1158 269.0293 15.80849064  2781
STARLINK-36737          
1 67740U 26026V   26060.11927957  .00158434  00000+0  81044-3 0  9999
2 67740  97.2867 114.3951 0001417  64.2763 295.8651 15.80883465  2781
STARLINK-36740          
1 67741U 26026W   26060.11418825 -.00015073  00000+0 -78098-4 0  9998
2 67741  97.2862 114.4013 0001608  89.7657 270.3795 15.80811883  2785
STARLINK-36693          
1 67742U 26026X   26060.11812123 -.00043654  00000+0 -22885-3 0  9996
2 67742  97.2862 114.3974 0001167  94.0669 266.0733 15.80763303  2780
STARLINK-36717          
1 67743U 26026Y   26060.11535206  .00118507  00000+0  60961-3 0  9996
2 67743  97.2866 114.3996 0001463  69.4576 290.6849 15.80868024  2788
STARLINK-36692          
1 67744U 26026Z   26060.11664185 -.00073806  00000+0 -38838-3 0  9998
2 67744  97.2863 114.3989 0001531  80.4367 279.7074 15.80784714  2786
2026-027A               
1 67746U 26027A   26060.13189376  .00009292  00000+0  46605-3 0  9994
2 67746  97.4887 189.2372 0009603 224.9294 135.1163 15.17510615  2562
2026-027B               
1 67747U 26027B   26060.13077003  .00009376  00000+0  46886-3 0  9992
2 67747  97.4882 189.2374 0009731 227.5226 132.5186 15.17611317  2563
2026-027C               
1 67748U 26027C   26060.12954411  .00006518  00000+0  32649-3 0  9996
2 67748  97.4894 189.2417 0010087 230.4186 129.6158 15.17675946  2563
