CCSDS_OMM_VERS = 2.0
CREATION_DATE  = 
ORIGINATOR     = 

OBJECT_NAME    = STARLINK-36317
OBJECT_ID      = 2026-026R
CENTER_NAME    = EARTH
REF_FRAME      = TEME
TIME_SYSTEM    = UTC
MEAN_ELEMENT_THEORY = SGP/SGP4

EPOCH          = 2026-03-01T02:59:59.101440
MEAN_MOTION    = 15.80788819
ECCENTRICITY   = .0001555
INCLINATION    = 97.2865
RA_OF_ASC_NODE = 114.3887
ARG_OF_PERICENTER = 52.1955
MEAN_ANOMALY   = 307.9453

EPHEMERIS_TYPE = 0
CLASSIFICATION_TYPE = U
NORAD_CAT_ID   = 67736
ELEMENT_SET_NO = 999
REV_AT_EPOCH   = 278
BSTAR          = -.28725E-3
MEAN_MOTION_DOT = -.54753E-3
MEAN_MOTION_DDOT = 0

CCSDS_OMM_VERS = 2.0
CREATION_DATE  = 
ORIGINATOR     = 

OBJECT_NAME    = STARLINK-36330
OBJECT_ID      = 2026-026S
CENTER_NAME    = EARTH
REF_FRAME      = TEME
TIME_SYSTEM    = UTC
MEAN_ELEMENT_THEORY = SGP/SGP4

EPOCH          = 2026-03-01T02:56:00.235680
MEAN_MOTION    = 15.80835080
ECCENTRICITY   = .0001568
INCLINATION    = 97.2861
RA_OF_ASC_NODE = 114.3924
ARG_OF_PERICENTER = 45.2922
MEAN_ANOMALY   = 314.8474

EPHEMERIS_TYPE = 0
CLASSIFICATION_TYPE = U
NORAD_CAT_ID   = 67737
ELEMENT_SET_NO = 999
REV_AT_EPOCH   = 278
BSTAR          = .17938E-3
MEAN_MOTION_DOT = .34384E-3
MEAN_MOTION_DDOT = 0

CCSDS_OMM_VERS = 2.0
CREATION_DATE  = 
ORIGINATOR     = 

OBJECT_NAME    = STARLINK-36327
OBJECT_ID      = 2026-026T
CENTER_NAME    = EARTH
REF_FRAME      = TEME
TIME_SYSTEM    = UTC
MEAN_ELEMENT_THEORY = SGP/SGP4

EPOCH          = 2026-03-01T02:53:58.977600
MEAN_MOTION    = 15.80813864
ECCENTRICITY   = .0001007
INCLINATION    = 97.2862
RA_OF_ASC_NODE = 114.3948
ARG_OF_PERICENTER = 91.2045
MEAN_ANOMALY   = 268.9338

EPHEMERIS_TYPE = 0
CLASSIFICATION_TYPE = U
NORAD_CAT_ID   = 67738
ELEMENT_SET_NO = 999
REV_AT_EPOCH   = 278
BSTAR          = -.16848E-4
MEAN_MOTION_DOT = -.3367E-4
MEAN_MOTION_DDOT = 0

CCSDS_OMM_VERS = 2.0
CREATION_DATE  = 
ORIGINATOR     = 

OBJECT_NAME    = STARLINK-36329
OBJECT_ID      = 2026-026U
CENTER_NAME    = EARTH
REF_FRAME      = TEME
TIME_SYSTEM    = UTC
MEAN_ELEMENT_THEORY = SGP/SGP4

EPOCH          = 2026-03-01T02:41:47.602464
MEAN_MOTION    = 15.80849064
ECCENTRICITY   = .0001593
INCLINATION    = 97.2864
RA_OF_ASC_NODE = 114.4023
ARG_OF_PERICENTER = 91.1158
MEAN_ANOMALY   = 269.0293

EPHEMERIS_TYPE = 0
CLASSIFICATION_TYPE = U
NORAD_CAT_ID   = 67739
ELEMENT_SET_NO = 999
REV_AT_EPOCH   = 278
BSTAR          = .26524E-3
MEAN_MOTION_DOT = .5104E-3
MEAN_MOTION_DDOT = 0

CCSDS_OMM_VERS = 2.0
CREATION_DATE  = 
ORIGINATOR     = 

OBJECT_NAME    = STARLINK-36737
OBJECT_ID      = 2026-026V
CENTER_NAME    = EARTH
REF_FRAME      = TEME
TIME_SYSTEM    = UTC
MEAN_ELEMENT_THEORY = SGP/SGP4

EPOCH          = 2026-03-01T02:51:45.754848
MEAN_MOTION    = 15.80883465
ECCENTRICITY   = .0001417
INCLINATION    = 97.2867
RA_OF_ASC_NODE = 114.3951
ARG_OF_PERICENTER = 64.2763
MEAN_ANOMALY   = 295.8651

EPHEMERIS_TYPE = 0
CLASSIFICATION_TYPE = U
NORAD_CAT_ID   = 67740
ELEMENT_SET_NO = 999
REV_AT_EPOCH   = 278
BSTAR          = .81044E-3
MEAN_MOTION_DOT = .158434E-2
MEAN_MOTION_DDOT = 0

CCSDS_OMM_VERS = 2.0
CREATION_DATE  = 
ORIGINATOR     = 

OBJECT_NAME    = STARLINK-36740
OBJECT_ID      = 2026-026W
CENTER_NAME    = EARTH
REF_FRAME      = TEME
TIME_SYSTEM    = UTC
MEAN_ELEMENT_THEORY = SGP/SGP4

EPOCH          = 2026-03-01T02:44:25.864800
MEAN_MOTION    = 15.80811883
ECCENTRICITY   = .0001608
INCLINATION    = 97.2862
RA_OF_ASC_NODE = 114.4013
ARG_OF_PERICENTER = 89.7657
MEAN_ANOMALY   = 270.3795

EPHEMERIS_TYPE = 0
CLASSIFICATION_TYPE = U
NORAD_CAT_ID   = 67741
ELEMENT_SET_NO = 999
REV_AT_EPOCH   = 278
BSTAR          = -.78098E-4
MEAN_MOTION_DOT = -.15073E-3
MEAN_MOTION_DDOT = 0

CCSDS_OMM_VERS = 2.0
CREATION_DATE  = 
ORIGINATOR     = 

OBJECT_NAME    = STARLINK-36693
OBJECT_ID      = 2026-026X
CENTER_NAME    = EARTH
REF_FRAME      = TEME
TIME_SYSTEM    = UTC
MEAN_ELEMENT_THEORY = SGP/SGP4

EPOCH          = 2026-03-01T02:50:05.674272
MEAN_MOTION    = 15.80763303
ECCENTRICITY   = .0001167
INCLINATION    = 97.2862
RA_OF_ASC_NODE = 114.3974
ARG_OF_PERICENTER = 94.0669
MEAN_ANOMALY   = 266.0733

EPHEMERIS_TYPE = 0
CLASSIFICATION_TYPE = U
NORAD_CAT_ID   = 67742
ELEMENT_SET_NO = 999
REV_AT_EPOCH   = 278
BSTAR          = -.22885E-3
MEAN_MOTION_DOT = -.43654E-3
MEAN_MOTION_DDOT = 0

CCSDS_OMM_VERS = 2.0
CREATION_DATE  = 
ORIGINATOR     = 

OBJECT_NAME    = STARLINK-36717
OBJECT_ID      = 2026-026Y
CENTER_NAME    = EARTH
REF_FRAME      = TEME
TIME_SYSTEM    = UTC
MEAN_ELEMENT_THEORY = SGP/SGP4

EPOCH          = 2026-03-01T02:46:06.417984
MEAN_MOTION    = 15.80868024
ECCENTRICITY   = .0001463
INCLINATION    = 97.2866
RA_OF_ASC_NODE = 114.3996
ARG_OF_PERICENTER = 69.4576
MEAN_ANOMALY   = 290.6849

EPHEMERIS_TYPE = 0
CLASSIFICATION_TYPE = U
NORAD_CAT_ID   = 67743
ELEMENT_SET_NO = 999
REV_AT_EPOCH   = 278
BSTAR          = .60961E-3
MEAN_MOTION_DOT = .118507E-2
MEAN_MOTION_DDOT = 0

CCSDS_OMM_VERS = 2.0
CREATION_DATE  = 
ORIGINATOR     = 

OBJECT_NAME    = STARLINK-36692
OBJECT_ID      = 2026-026Z
CENTER_NAME    = EARTH
REF_FRAME      = TEME
TIME_SYSTEM    = UTC
MEAN_ELEMENT_THEORY = SGP/SGP4

EPOCH          = 2026-03-01T02:47:57.855840
MEAN_MOTION    = 15.80784714
ECCENTRICITY   = .0001531
INCLINATION    = 97.2863
RA_OF_ASC_NODE = 114.3989
ARG_OF_PERICENTER = 80.4367
MEAN_ANOMALY   = 279.7074

EPHEMERIS_TYPE = 0
CLASSIFICATION_TYPE = U
NORAD_CAT_ID   = 67744
ELEMENT_SET_NO = 999
REV_AT_EPOCH   = 278
BSTAR          = -.38838E-3
MEAN_MOTION_DOT = -.73806E-3
MEAN_MOTION_DDOT = 0

CCSDS_OMM_VERS = 2.0
CREATION_DATE  = 
ORIGINATOR     = 

OBJECT_NAME    = 2026-027A
OBJECT_ID      = 2026-027A
CENTER_NAME    = EARTH
REF_FRAME      = TEME
TIME_SYSTEM    = UTC
MEAN_ELEMENT_THEORY = SGP/SGP4

EPOCH          = 2026-03-01T03:09:55.620864
MEAN_MOTION    = 15.17510615
ECCENTRICITY   = .0009603
INCLINATION    = 97.4887
RA_OF_ASC_NODE = 189.2372
ARG_OF_PERICENTER = 224.9294
MEAN_ANOMALY   = 135.1163

EPHEMERIS_TYPE = 0
CLASSIFICATION_TYPE = U
NORAD_CAT_ID   = 67746
ELEMENT_SET_NO = 999
REV_AT_EPOCH   = 256
BSTAR          = .46605E-3
MEAN_MOTION_DOT = .9292E-4
MEAN_MOTION_DDOT = 0

CCSDS_OMM_VERS = 2.0
CREATION_DATE  = 
ORIGINATOR     = 

OBJECT_NAME    = 2026-027B
OBJECT_ID      = 2026-027B
CENTER_NAME    = EARTH
REF_FRAME      = TEME
TIME_SYSTEM    = UTC
MEAN_ELEMENT_THEORY = SGP/SGP4

EPOCH          = 2026-03-01T03:08:18.530592
MEAN_MOTION    = 15.17611317
ECCENTRICITY   = .0009731
INCLINATION    = 97.4882
RA_OF_ASC_NODE = 189.2374
ARG_OF_PERICENTER = 227.5226
MEAN_ANOMALY   = 132.5186

EPHEMERIS_TYPE = 0
CLASSIFICATION_TYPE = U
NORAD_CAT_ID   = 67747
ELEMENT_SET_NO = 999
REV_AT_EPOCH   = 256
BSTAR          = .46886E-3
MEAN_MOTION_DOT = .9376E-4
MEAN_MOTION_DDOT = 0

CCSDS_OMM_VERS = 2.0
CREATION_DATE  = 
ORIGINATOR     = 

OBJECT_NAME    = 2026-027C
OBJECT_ID      = 2026-027C
CENTER_NAME    = EARTH
REF_FRAME      = TEME
TIME_SYSTEM    = UTC
MEAN_ELEMENT_THEORY = SGP/SGP4

EPOCH          = 2026-03-01T03:06:32.611104
MEAN_MOTION    = 15.17675946
ECCENTRICITY   = .0010087
INCLINATION    = 97.4894
RA_OF_ASC_NODE = 189.2417
ARG_OF_PERICENTER = 230.4186
MEAN_ANOMALY   = 129.6158

EPHEMERIS_TYPE = 0
CLASSIFICATION_TYPE = U
NORAD_CAT_ID   = 67748
ELEMENT_SET_NO = 999
REV_AT_EPOCH   = 256
BSTAR          = .32649E-3
MEAN_MOTION_DOT = .6518E-4
MEAN_MOTION_DDOT = 0

